{
  "type": "FeatureCollection",
  "features": [
    {
      "type": "Feature",
      "geometry": {
        "type": "LineString",
        "coordinates": [
          [
            77.1734,
            31.1048
          ],
          [
            77.145678,
            31.020952
          ],
          [
            77.117956,
            30.937104
          ],
          [
            77.090234,
            30.853256000000002
          ],
          [
            77.062512,
            30.769408000000002
          ],
          [
            77.03479,
            30.685560000000002
          ],
          [
            77.007068,
            30.601712000000003
          ],
          [
            76.979346,
            30.517864
          ],
          [
            76.951624,
            30.434016
          ],
          [
            76.923902,
            30.350168
          ],
          [
            76.89618,
            30.26632
          ],
          [
            76.868458,
            30.182472
          ],
          [
            76.840736,
            30.098624
          ],
          [
            76.813014,
            30.014776
          ],
          [
            76.785292,
            29.930928
          ],
          [
            76.75757,
            29.847080000000002
          ],
          [
            76.729848,
            29.763232000000002
          ],
          [
            76.702126,
            29.679384000000002
          ],
          [
            76.674404,
            29.595536000000003
          ],
          [
            76.646682,
            29.511688
          ],
          [
            76.61896,
            29.42784
          ],
          [
            76.591238,
            29.343992
          ],
          [
            76.563516,
            29.260144
          ],
          [
            76.535794,
            29.176296
          ],
          [
            76.508072,
            29.092448
          ],
          [
            76.48035,
            29.0086
          ],
          [
            76.452628,
            28.924752
          ],
          [
            76.42490600000001,
            28.840904000000002
          ],
          [
            76.397184,
            28.757056000000002
          ],
          [
            76.369462,
            28.673208000000002
          ],
          [
            76.34174,
            28.589360000000003
          ],
          [
            76.314018,
            28.505512000000003
          ],
          [
            76.28629600000001,
            28.421664
          ],
          [
            76.258574,
            28.337816
          ],
          [
            76.230852,
            28.253968
          ],
          [
            76.20313,
            28.17012
          ],
          [
            76.175408,
            28.086272
          ],
          [
            76.14768600000001,
            28.002424
          ],
          [
            76.119964,
            27.918576
          ],
          [
            76.092242,
            27.834728000000002
          ],
          [
            76.06452,
            27.750880000000002
          ],
          [
            76.036798,
            27.667032000000003
          ],
          [
            76.00907600000001,
            27.583184000000003
          ],
          [
            75.981354,
            27.499336000000003
          ],
          [
            75.953632,
            27.415488000000003
          ],
          [
            75.92591,
            27.33164
          ],
          [
            75.898188,
            27.247792
          ],
          [
            75.87046600000001,
            27.163944
          ],
          [
            75.842744,
            27.080096
          ],
          [
            75.815022,
            26.996248
          ],
          [
            75.7873,
            26.9124
          ]
        ]
      },
      "properties": {
        "name": "Himachal to Rajasthan - Compromised by Severe flooding zone",
        "distance_km": 485.25333542993076,
        "duration_hours": 8.087555590498846,
        "risk_score": 200,
        "is_safe": false,
        "export_time": "2025-09-08T21:45:15.269024",
        "disaster_scenario": "Severe flooding zone",
        "affected_zones": 1
      }
    }
  ]
}