{
  "type": "FeatureCollection",
  "features": [
    {
      "type": "Feature",
      "geometry": {
        "type": "LineString",
        "coordinates": [
          [
            77.1734,
            31.1048
          ],
          [
            77.14271642857143,
            31.01888
          ],
          [
            77.11203285714286,
            30.93296
          ],
          [
            77.08134928571428,
            30.84704
          ],
          [
            77.05066571428571,
            30.761120000000002
          ],
          [
            77.01998214285715,
            30.6752
          ],
          [
            76.98929857142858,
            30.589280000000002
          ],
          [
            76.958615,
            30.50336
          ],
          [
            76.92793142857143,
            30.41744
          ],
          [
            76.89724785714286,
            30.33152
          ],
          [
            76.86656428571429,
            30.2456
          ],
          [
            76.83588071428572,
            30.15968
          ],
          [
            76.80519714285714,
            30.07376
          ],
          [
            76.77451357142857,
            29.987840000000002
          ],
          [
            76.74383,
            29.90192
          ],
          [
            76.71314642857143,
            29.816000000000003
          ],
          [
            76.68246285714285,
            29.73008
          ],
          [
            76.65177928571428,
            29.64416
          ],
          [
            76.62109571428572,
            29.55824
          ],
          [
            76.59041214285715,
            29.47232
          ],
          [
            76.55972857142858,
            29.386400000000002
          ],
          [
            76.529045,
            29.30048
          ],
          [
            76.49836142857143,
            29.214560000000002
          ],
          [
            76.46767785714286,
            29.12864
          ],
          [
            76.43699428571429,
            29.042720000000003
          ],
          [
            76.40631071428571,
            28.9568
          ],
          [
            76.37562714285714,
            28.87088
          ],
          [
            76.34494357142857,
            28.78496
          ],
          [
            76.31426,
            28.69904
          ],
          [
            76.28357642857144,
            28.613120000000002
          ],
          [
            76.25289285714285,
            28.5272
          ],
          [
            76.22220928571429,
            28.44128
          ],
          [
            76.19152571428572,
            28.35536
          ],
          [
            76.16084214285715,
            28.26944
          ],
          [
            76.13015857142857,
            28.18352
          ],
          [
            76.099475,
            28.0976
          ],
          [
            76.06879142857143,
            28.011680000000002
          ],
          [
            76.03810785714286,
            27.92576
          ],
          [
            76.0074242857143,
            27.839840000000002
          ],
          [
            75.97674071428571,
            27.75392
          ],
          [
            75.94605714285714,
            27.668
          ],
          [
            75.91537357142857,
            27.58208
          ],
          [
            75.88469,
            27.49616
          ],
          [
            75.85400642857142,
            27.41024
          ],
          [
            75.82332285714286,
            27.32432
          ],
          [
            75.79263928571429,
            27.2384
          ],
          [
            75.76195571428572,
            27.15248
          ],
          [
            75.73127214285715,
            27.066560000000003
          ],
          [
            75.70058857142857,
            26.98064
          ],
          [
            75.669905,
            26.89472
          ],
          [
            75.63922142857143,
            26.8088
          ],
          [
            75.60853785714286,
            26.72288
          ],
          [
            75.57785428571428,
            26.636960000000002
          ],
          [
            75.54717071428571,
            26.55104
          ],
          [
            75.51648714285714,
            26.46512
          ],
          [
            75.48580357142858,
            26.3792
          ],
          [
            75.45512000000001,
            26.29328
          ],
          [
            75.42443642857143,
            26.20736
          ],
          [
            75.39375285714286,
            26.12144
          ],
          [
            75.36306928571429,
            26.03552
          ],
          [
            75.33238571428572,
            25.9496
          ],
          [
            75.30170214285714,
            25.863680000000002
          ],
          [
            75.27101857142857,
            25.77776
          ],
          [
            75.240335,
            25.69184
          ],
          [
            75.20965142857143,
            25.60592
          ],
          [
            75.17896785714287,
            25.52
          ],
          [
            75.14828428571428,
            25.43408
          ],
          [
            75.11760071428571,
            25.34816
          ],
          [
            75.08691714285715,
            25.262240000000002
          ],
          [
            75.05623357142858,
            25.17632
          ],
          [
            75.02555000000001,
            25.090400000000002
          ],
          [
            74.99486642857143,
            25.00448
          ],
          [
            74.96418285714286,
            24.91856
          ],
          [
            74.93349928571429,
            24.83264
          ],
          [
            74.90281571428572,
            24.74672
          ],
          [
            74.87213214285714,
            24.660800000000002
          ],
          [
            74.84144857142857,
            24.57488
          ],
          [
            74.810765,
            24.48896
          ],
          [
            74.78008142857144,
            24.40304
          ],
          [
            74.74939785714287,
            24.317120000000003
          ],
          [
            74.71871428571428,
            24.2312
          ],
          [
            74.68803071428572,
            24.14528
          ],
          [
            74.65734714285715,
            24.05936
          ],
          [
            74.62666357142858,
            23.97344
          ],
          [
            74.59598,
            23.887520000000002
          ],
          [
            74.56529642857143,
            23.8016
          ],
          [
            74.53461285714286,
            23.71568
          ],
          [
            74.50392928571429,
            23.62976
          ],
          [
            74.47324571428572,
            23.543840000000003
          ],
          [
            74.44256214285714,
            23.45792
          ],
          [
            74.41187857142857,
            23.372
          ],
          [
            74.381195,
            23.28608
          ],
          [
            74.35051142857144,
            23.20016
          ],
          [
            74.31982785714285,
            23.114240000000002
          ],
          [
            74.28914428571429,
            23.02832
          ],
          [
            74.25846071428572,
            22.9424
          ],
          [
            74.22777714285715,
            22.85648
          ],
          [
            74.19709357142858,
            22.770560000000003
          ],
          [
            74.16641,
            22.68464
          ],
          [
            74.13572642857143,
            22.59872
          ],
          [
            74.10504285714286,
            22.5128
          ],
          [
            74.0743592857143,
            22.42688
          ],
          [
            74.04367571428571,
            22.340960000000003
          ],
          [
            74.01299214285714,
            22.25504
          ],
          [
            73.98230857142858,
            22.16912
          ],
          [
            73.951625,
            22.0832
          ],
          [
            73.92094142857144,
            21.997280000000003
          ],
          [
            73.89025785714286,
            21.911360000000002
          ],
          [
            73.85957428571429,
            21.82544
          ],
          [
            73.82889071428572,
            21.73952
          ],
          [
            73.79820714285715,
            21.6536
          ],
          [
            73.76752357142857,
            21.567680000000003
          ],
          [
            73.73684,
            21.48176
          ],
          [
            73.70615642857143,
            21.39584
          ],
          [
            73.67547285714286,
            21.309919999999998
          ],
          [
            73.6447892857143,
            21.224
          ],
          [
            73.61410571428571,
            21.138080000000002
          ],
          [
            73.58342214285715,
            21.05216
          ],
          [
            73.55273857142858,
            20.96624
          ],
          [
            73.52205500000001,
            20.88032
          ],
          [
            73.49137142857143,
            20.794400000000003
          ],
          [
            73.46068785714286,
            20.70848
          ],
          [
            73.43000428571429,
            20.62256
          ],
          [
            73.39932071428572,
            20.53664
          ],
          [
            73.36863714285715,
            20.45072
          ],
          [
            73.33795357142857,
            20.364800000000002
          ],
          [
            73.30727,
            20.27888
          ],
          [
            73.27658642857143,
            20.19296
          ],
          [
            73.24590285714287,
            20.10704
          ],
          [
            73.21521928571428,
            20.021120000000003
          ],
          [
            73.18453571428572,
            19.935200000000002
          ],
          [
            73.15385214285715,
            19.84928
          ],
          [
            73.12316857142858,
            19.76336
          ],
          [
            73.09248500000001,
            19.67744
          ],
          [
            73.06180142857143,
            19.59152
          ],
          [
            73.03111785714286,
            19.5056
          ],
          [
            73.00043428571429,
            19.41968
          ],
          [
            72.96975071428572,
            19.33376
          ],
          [
            72.93906714285714,
            19.24784
          ],
          [
            72.90838357142857,
            19.161920000000002
          ],
          [
            72.8777,
            19.076
          ]
        ]
      },
      "properties": {
        "name": "Himachal to Maharashtra - Compromised by Bridge collapse blockade",
        "distance_km": 1405.3441703192389,
        "duration_hours": 23.42240283865398,
        "risk_score": 120,
        "is_safe": false,
        "export_time": "2025-09-08T21:45:11.020855",
        "disaster_scenario": "Bridge collapse blockade",
        "affected_zones": 1
      }
    }
  ]
}