{
  "type": "FeatureCollection",
  "features": [
    {
      "type": "Feature",
      "geometry": {
        "type": "LineString",
        "coordinates": [
          [
            76.2711,
            9.9312
          ],
          [
            76.33705285171104,
            9.996482129277567
          ],
          [
            76.40300570342205,
            10.061764258555133
          ],
          [
            76.46895855513309,
            10.1270463878327
          ],
          [
            76.53491140684412,
            10.192328517110267
          ],
          [
            76.60086425855513,
            10.257610646387834
          ],
          [
            76.66681711026617,
            10.3228927756654
          ],
          [
            76.73276996197718,
            10.388174904942966
          ],
          [
            76.79872281368822,
            10.453457034220532
          ],
          [
            76.86467566539925,
            10.518739163498099
          ],
          [
            76.93062851711026,
            10.584021292775667
          ],
          [
            76.9965813688213,
            10.649303422053233
          ],
          [
            77.06253422053233,
            10.7145855513308
          ],
          [
            77.12848707224335,
            10.779867680608366
          ],
          [
            77.19443992395438,
            10.845149809885932
          ],
          [
            77.26039277566541,
            10.910431939163498
          ],
          [
            77.32634562737643,
            10.975714068441064
          ],
          [
            77.39229847908746,
            11.04099619771863
          ],
          [
            77.45825133079848,
            11.106278326996199
          ],
          [
            77.52420418250951,
            11.171560456273765
          ],
          [
            77.59015703422054,
            11.236842585551331
          ],
          [
            77.65610988593156,
            11.302124714828897
          ],
          [
            77.72206273764259,
            11.367406844106464
          ],
          [
            77.78801558935362,
            11.432688973384032
          ],
          [
            77.85396844106464,
            11.497971102661598
          ],
          [
            77.91992129277567,
            11.563253231939164
          ],
          [
            77.9858741444867,
            11.62853536121673
          ],
          [
            78.05182699619772,
            11.693817490494297
          ],
          [
            78.11777984790875,
            11.759099619771863
          ],
          [
            78.18373269961978,
            11.82438174904943
          ],
          [
            78.2496855513308,
            11.889663878326997
          ],
          [
            78.31563840304183,
            11.954946007604564
          ],
          [
            78.38159125475285,
            12.02022813688213
          ],
          [
            78.44754410646388,
            12.085510266159696
          ],
          [
            78.51349695817491,
            12.150792395437263
          ],
          [
            78.57944980988593,
            12.216074524714829
          ],
          [
            78.64540266159696,
            12.281356653992397
          ],
          [
            78.71135551330799,
            12.346638783269963
          ],
          [
            78.77730836501901,
            12.41192091254753
          ],
          [
            78.84326121673004,
            12.477203041825096
          ],
          [
            78.90921406844107,
            12.542485171102662
          ],
          [
            78.97516692015209,
            12.607767300380228
          ],
          [
            79.04111977186312,
            12.673049429657794
          ],
          [
            79.10707262357414,
            12.738331558935363
          ],
          [
            79.17302547528517,
            12.803613688212927
          ],
          [
            79.2389783269962,
            12.868895817490495
          ],
          [
            79.30493117870722,
            12.934177946768061
          ],
          [
            79.37088403041825,
            12.999460076045628
          ],
          [
            79.43683688212928,
            13.064742205323194
          ],
          [
            79.5027897338403,
            13.130024334600762
          ],
          [
            79.56874258555133,
            13.195306463878328
          ],
          [
            79.63469543726237,
            13.260588593155894
          ],
          [
            79.70064828897338,
            13.32587072243346
          ],
          [
            79.76660114068441,
            13.391152851711027
          ],
          [
            79.83255399239545,
            13.456434980988593
          ],
          [
            79.89850684410646,
            13.52171711026616
          ],
          [
            79.9644596958175,
            13.586999239543726
          ],
          [
            80.03041254752851,
            13.652281368821292
          ],
          [
            80.09636539923955,
            13.71756349809886
          ],
          [
            80.16231825095058,
            13.782845627376426
          ],
          [
            80.2282711026616,
            13.848127756653993
          ],
          [
            80.29422395437263,
            13.91340988593156
          ],
          [
            80.36017680608366,
            13.978692015209127
          ],
          [
            80.42612965779468,
            14.043974144486693
          ],
          [
            80.4920825095057,
            14.10925627376426
          ],
          [
            80.55803536121672,
            14.174538403041826
          ],
          [
            80.62398821292776,
            14.239820532319392
          ],
          [
            80.68994106463879,
            14.305102661596958
          ],
          [
            80.7558939163498,
            14.370384790874525
          ],
          [
            80.82184676806084,
            14.43566692015209
          ],
          [
            80.88779961977187,
            14.500949049429657
          ],
          [
            80.95375247148289,
            14.566231178707223
          ],
          [
            81.01970532319392,
            14.631513307984791
          ],
          [
            81.08565817490495,
            14.696795437262358
          ],
          [
            81.15161102661597,
            14.762077566539926
          ],
          [
            81.217563878327,
            14.827359695817492
          ],
          [
            81.28351673003803,
            14.892641825095058
          ],
          [
            81.34946958174905,
            14.957923954372625
          ],
          [
            81.41542243346008,
            15.02320608365019
          ],
          [
            81.48137528517111,
            15.088488212927757
          ],
          [
            81.54732813688213,
            15.153770342205323
          ],
          [
            81.61328098859316,
            15.21905247148289
          ],
          [
            81.67923384030418,
            15.284334600760456
          ],
          [
            81.74518669201521,
            15.349616730038022
          ],
          [
            81.81113954372624,
            15.41489885931559
          ],
          [
            81.87709239543726,
            15.480180988593156
          ],
          [
            81.94304524714829,
            15.545463117870725
          ],
          [
            82.00899809885932,
            15.610745247148289
          ],
          [
            82.07495095057034,
            15.676027376425855
          ],
          [
            82.14090380228137,
            15.741309505703423
          ],
          [
            82.20685665399239,
            15.80659163498099
          ],
          [
            82.27280950570342,
            15.871873764258556
          ],
          [
            82.33876235741445,
            15.937155893536122
          ],
          [
            82.40471520912547,
            16.00243802281369
          ],
          [
            82.4706680608365,
            16.067720152091255
          ],
          [
            82.53662091254753,
            16.13300228136882
          ],
          [
            82.60257376425855,
            16.198284410646387
          ],
          [
            82.66852661596958,
            16.263566539923954
          ],
          [
            82.73447946768061,
            16.32884866920152
          ],
          [
            82.80043231939163,
            16.39413079847909
          ],
          [
            82.86638517110266,
            16.459412927756652
          ],
          [
            82.9323380228137,
            16.524695057034222
          ],
          [
            82.99829087452471,
            16.58997718631179
          ],
          [
            83.06424372623574,
            16.655259315589355
          ],
          [
            83.13019657794676,
            16.72054144486692
          ],
          [
            83.1961494296578,
            16.785823574144487
          ],
          [
            83.26210228136883,
            16.851105703422053
          ],
          [
            83.32805513307984,
            16.91638783269962
          ],
          [
            83.39400798479087,
            16.981669961977186
          ],
          [
            83.4599608365019,
            17.046952091254752
          ],
          [
            83.52591368821292,
            17.112234220532322
          ],
          [
            83.59186653992396,
            17.177516349809885
          ],
          [
            83.65781939163497,
            17.242798479087455
          ],
          [
            83.723772243346,
            17.30808060836502
          ],
          [
            83.78972509505704,
            17.373362737642587
          ],
          [
            83.85567794676805,
            17.438644866920153
          ],
          [
            83.92163079847909,
            17.50392699619772
          ],
          [
            83.98758365019012,
            17.569209125475286
          ],
          [
            84.05353650190114,
            17.634491254752852
          ],
          [
            84.11948935361217,
            17.69977338403042
          ],
          [
            84.1854422053232,
            17.765055513307985
          ],
          [
            84.25139505703422,
            17.83033764258555
          ],
          [
            84.31734790874525,
            17.895619771863117
          ],
          [
            84.38330076045628,
            17.960901901140687
          ],
          [
            84.4492536121673,
            18.02618403041825
          ],
          [
            84.51520646387833,
            18.09146615969582
          ],
          [
            84.58115931558936,
            18.156748288973382
          ],
          [
            84.64711216730038,
            18.222030418250952
          ],
          [
            84.71306501901141,
            18.287312547528515
          ],
          [
            84.77901787072243,
            18.352594676806085
          ],
          [
            84.84497072243346,
            18.41787680608365
          ],
          [
            84.91092357414449,
            18.483158935361217
          ],
          [
            84.97687642585551,
            18.548441064638784
          ],
          [
            85.04282927756654,
            18.61372319391635
          ],
          [
            85.10878212927757,
            18.67900532319392
          ],
          [
            85.17473498098859,
            18.744287452471482
          ],
          [
            85.24068783269962,
            18.80956958174905
          ],
          [
            85.30664068441064,
            18.874851711026615
          ],
          [
            85.37259353612167,
            18.940133840304185
          ],
          [
            85.4385463878327,
            19.005415969581748
          ],
          [
            85.50449923954372,
            19.070698098859317
          ],
          [
            85.57045209125475,
            19.135980228136884
          ],
          [
            85.63640494296578,
            19.20126235741445
          ],
          [
            85.7023577946768,
            19.266544486692016
          ],
          [
            85.76831064638783,
            19.331826615969582
          ],
          [
            85.83426349809886,
            19.397108745247152
          ],
          [
            85.90021634980988,
            19.462390874524715
          ],
          [
            85.96616920152091,
            19.52767300380228
          ],
          [
            86.03212205323194,
            19.592955133079847
          ],
          [
            86.09807490494296,
            19.658237262357414
          ],
          [
            86.164027756654,
            19.72351939163498
          ],
          [
            86.22998060836503,
            19.78880152091255
          ],
          [
            86.29593346007604,
            19.854083650190113
          ],
          [
            86.36188631178707,
            19.919365779467682
          ],
          [
            86.42783916349809,
            19.98464790874525
          ],
          [
            86.49379201520912,
            20.049930038022815
          ],
          [
            86.55974486692016,
            20.115212167300378
          ],
          [
            86.62569771863117,
            20.180494296577947
          ],
          [
            86.6916505703422,
            20.245776425855514
          ],
          [
            86.75760342205322,
            20.31105855513308
          ],
          [
            86.82355627376425,
            20.376340684410646
          ],
          [
            86.88950912547529,
            20.441622813688213
          ],
          [
            86.9554619771863,
            20.506904942965782
          ],
          [
            87.02141482889733,
            20.572187072243345
          ],
          [
            87.08736768060837,
            20.637469201520915
          ],
          [
            87.15332053231938,
            20.702751330798478
          ],
          [
            87.21927338403042,
            20.768033460076047
          ],
          [
            87.28522623574145,
            20.83331558935361
          ],
          [
            87.35117908745246,
            20.89859771863118
          ],
          [
            87.4171319391635,
            20.963879847908746
          ],
          [
            87.48308479087453,
            21.029161977186313
          ],
          [
            87.54903764258555,
            21.09444410646388
          ],
          [
            87.61499049429658,
            21.159726235741445
          ],
          [
            87.68094334600761,
            21.22500836501901
          ],
          [
            87.74689619771863,
            21.290290494296578
          ],
          [
            87.81284904942966,
            21.355572623574147
          ],
          [
            87.87880190114068,
            21.42085475285171
          ],
          [
            87.94475475285171,
            21.48613688212928
          ],
          [
            88.01070760456274,
            21.551419011406843
          ],
          [
            88.07666045627376,
            21.616701140684413
          ],
          [
            88.14261330798479,
            21.681983269961975
          ],
          [
            88.20856615969582,
            21.747265399239545
          ],
          [
            88.27451901140684,
            21.81254752851711
          ],
          [
            88.34047186311787,
            21.877829657794678
          ],
          [
            88.40642471482889,
            21.943111787072244
          ],
          [
            88.47237756653992,
            22.00839391634981
          ],
          [
            88.53833041825095,
            22.07367604562738
          ],
          [
            88.60428326996197,
            22.138958174904943
          ],
          [
            88.670236121673,
            22.204240304182512
          ],
          [
            88.73618897338403,
            22.269522433460075
          ],
          [
            88.80214182509505,
            22.33480456273764
          ],
          [
            88.86809467680608,
            22.400086692015208
          ],
          [
            88.93404752851711,
            22.465368821292778
          ],
          [
            89.00000038022813,
            22.53065095057034
          ],
          [
            89.06595323193916,
            22.59593307984791
          ],
          [
            89.1319060836502,
            22.661215209125476
          ],
          [
            89.19785893536121,
            22.726497338403043
          ],
          [
            89.26381178707224,
            22.79177946768061
          ],
          [
            89.32976463878327,
            22.857061596958175
          ],
          [
            89.39571749049429,
            22.922343726235745
          ],
          [
            89.46167034220532,
            22.987625855513308
          ],
          [
            89.52762319391634,
            23.052907984790874
          ],
          [
            89.59357604562737,
            23.11819011406844
          ],
          [
            89.6595288973384,
            23.18347224334601
          ],
          [
            89.72548174904942,
            23.248754372623573
          ],
          [
            89.79143460076045,
            23.314036501901143
          ],
          [
            89.85738745247149,
            23.37931863117871
          ],
          [
            89.9233403041825,
            23.444600760456275
          ],
          [
            89.98929315589353,
            23.50988288973384
          ],
          [
            90.05524600760455,
            23.575165019011408
          ],
          [
            90.12119885931558,
            23.640447148288974
          ],
          [
            90.18715171102662,
            23.70572927756654
          ],
          [
            90.25310456273763,
            23.771011406844107
          ],
          [
            90.31905741444866,
            23.836293536121673
          ],
          [
            90.3850102661597,
            23.90157566539924
          ],
          [
            90.45096311787071,
            23.966857794676805
          ],
          [
            90.51691596958175,
            24.032139923954375
          ],
          [
            90.58286882129278,
            24.097422053231938
          ],
          [
            90.6488216730038,
            24.162704182509508
          ],
          [
            90.71477452471483,
            24.22798631178707
          ],
          [
            90.78072737642586,
            24.29326844106464
          ],
          [
            90.84668022813688,
            24.358550570342203
          ],
          [
            90.91263307984791,
            24.423832699619773
          ],
          [
            90.97858593155894,
            24.48911482889734
          ],
          [
            91.04453878326996,
            24.554396958174905
          ],
          [
            91.11049163498099,
            24.61967908745247
          ],
          [
            91.176444486692,
            24.684961216730038
          ],
          [
            91.24239733840304,
            24.750243346007608
          ],
          [
            91.30835019011407,
            24.81552547528517
          ],
          [
            91.37430304182509,
            24.88080760456274
          ],
          [
            91.44025589353612,
            24.946089733840303
          ],
          [
            91.50620874524714,
            25.011371863117873
          ],
          [
            91.57216159695817,
            25.076653992395435
          ],
          [
            91.6381144486692,
            25.141936121673005
          ],
          [
            91.70406730038022,
            25.207218250950568
          ],
          [
            91.77002015209125,
            25.272500380228138
          ],
          [
            91.83597300380228,
            25.337782509505704
          ],
          [
            91.9019258555133,
            25.40306463878327
          ],
          [
            91.96787870722433,
            25.468346768060837
          ],
          [
            92.03383155893536,
            25.533628897338403
          ],
          [
            92.09978441064638,
            25.598911026615973
          ],
          [
            92.16573726235741,
            25.664193155893535
          ],
          [
            92.23169011406844,
            25.729475285171105
          ],
          [
            92.29764296577946,
            25.794757414448668
          ],
          [
            92.36359581749049,
            25.860039543726238
          ],
          [
            92.42954866920152,
            25.9253216730038
          ],
          [
            92.49550152091254,
            25.99060380228137
          ],
          [
            92.56145437262357,
            26.055885931558937
          ],
          [
            92.62740722433459,
            26.121168060836503
          ],
          [
            92.69336007604562,
            26.18645019011407
          ],
          [
            92.75931292775665,
            26.251732319391635
          ],
          [
            92.82526577946768,
            26.3170144486692
          ],
          [
            92.8912186311787,
            26.382296577946768
          ],
          [
            92.95717148288972,
            26.447578707224334
          ],
          [
            93.02312433460075,
            26.512860836501904
          ],
          [
            93.08907718631178,
            26.578142965779467
          ],
          [
            93.1550300380228,
            26.643425095057033
          ],
          [
            93.22098288973383,
            26.708707224334603
          ],
          [
            93.28693574144486,
            26.773989353612166
          ],
          [
            93.35288859315588,
            26.839271482889735
          ],
          [
            93.41884144486691,
            26.9045536121673
          ],
          [
            93.48479429657795,
            26.969835741444868
          ],
          [
            93.55074714828896,
            27.035117870722434
          ],
          [
            93.6167,
            27.1004
          ]
        ]
      },
      "properties": {
        "name": "Kerala to Arunachal - Compromised by Severe flooding zone",
        "distance_km": 2636.937868164034,
        "duration_hours": 43.94896446940057,
        "risk_score": 200,
        "is_safe": false,
        "export_time": "2025-09-08T21:45:33.906906",
        "disaster_scenario": "Severe flooding zone",
        "affected_zones": 1
      }
    }
  ]
}